PROBA-1                 
1 26958U 01049B   26169.33145146  .00001476  00000+0  98353-4 0  9994
2 26958  97.9594 177.9042 0056487 118.0878 242.6075 15.07498041343799
CUTE-1 (CO-55)          
1 27844U 03031E   26169.02064842  .00000221  00000+0  11471-3 0  9993
2 27844  98.6736 177.5689 0009609 175.5784 184.5482 14.24336174191794
CUBESAT XI-IV (CO-57)   
1 27848U 03031J   26168.93924090  .00000186  00000+0  10079-3 0  9999
2 27848  98.6765 177.2007 0009073 194.7196 165.3719 14.23621196191482
APRIZESAT 4             
1 35684U 09041D   26169.20108687  .00000511  00000+0  67644-4 0  9993
2 35684  98.1412 244.5418 0042344 319.6992  40.1085 14.83880470911515
APRIZESAT 3             
1 35686U 09041F   26169.16897168  .00001570  00000+0  13954-3 0  9999
2 35686  98.2064 322.4396 0062802  64.5906 296.1796 14.96244632916520
PROBA-2                 
1 36037U 09059B   26169.06577994  .00000129  00000+0  40500-4 0  9997
2 36037  98.2450 352.4063 0011948 279.1293  80.8552 14.54862763881650
APRIZESAT 5             
1 37792U 11044E   26169.29085807  .00000886  00000+0  11907-3 0  9993
2 37792  98.2452 102.3625 0052241   0.8063 359.3224 14.81078219798957
APRIZESAT 6             
1 37793U 11044F   26169.24765269  .00000619  00000+0  94502-4 0  9993
2 37793  98.2363  79.7689 0044505  82.7527  68.0651 14.76917308797305
PROBA-V                 
1 39159U 13021A   26168.89228801  .00000042  00000+0  36364-4 0  9996
2 39159  98.3584 147.4641 0005166 121.7820 238.3863 14.23597058681217
APRIZESAT 7             
1 39416U 13066A   26169.29440975  .00000955  00000+0  99862-4 0  9999
2 39416  97.7709 122.4984 0035084 205.5298 154.4189 14.91566171681395
APRIZESAT 8             
1 39425U 13066K   26169.28488904  .00000746  00000+0  86790-4 0  9996
2 39425  97.8221 116.7374 0044400 282.8266  76.7992 14.87654398679837
BUGSAT-1 (TITA)         
1 40014U 14033E   26169.29065792  .00004531  00000+0  24032-3 0  9990
2 40014  98.0431 261.9040 0028059 174.4860 185.6685 15.15595257656003
SAUDISAT 4              
1 40016U 14033G   26168.93041233  .00000523  00000+0  75487-4 0  9994
2 40016  97.7584 315.0393 0046138  71.6468 288.9754 14.79545642646186
APRIZESAT 9             
1 40018U 14033J   26169.29359387  .00000561  00000+0  89773-4 0  9993
2 40018  97.9063 302.4651 0065768 195.5874 164.3311 14.74215850643729
APRIZESAT 10            
1 40019U 14033K   26169.28311645  .00000343  00000+0  61970-4 0  9995
2 40019  97.9652 296.2180 0077388 270.2843  88.9497 14.70883242642412
TECHDEMOSAT-1 (TDS-1)   
1 40076U 14037H   26168.95197403  .00006168  00000+0  35071-3 0  9992
2 40076  98.3814 161.2404 0004523 262.2144  97.8571 15.13302501648348
TECHNOSAT               
1 42829U 17042E   26169.24659830  .00002961  00000+0  21222-3 0  9999
2 42829  97.4292 326.8635 0019031  90.8830 269.4577 15.04967634486862
FLYING LAPTOP           
1 42831U 17042G   26169.25204664  .00002494  00000+0  19836-3 0  9993
2 42831  97.4691 324.7430 0019595 118.1419 242.1788 15.01150483486618
HAWK-A                  
1 43765U 18099H   26169.13568281  .00004708  00000+0  19073-3 0  9991
2 43765  97.3909 221.3594 0033109 282.3789  77.3743 15.24651470413245
HAWK-B                  
1 43794U 18099AN  26169.09264234  .00004871  00000+0  20865-3 0  9991
2 43794  97.3957 220.7302 0030419 301.5982  58.2287 15.22833749413172
HAWK-C                  
1 43799U 18099AT  26169.11007984  .00005572  00000+0  20167-3 0  9990
2 43799  97.3886 222.2509 0038718 282.3747  77.3160 15.28112824414059
SALSAT                  
1 46495U 20068K   26168.99584059  .00006301  00000+0  22102-3 0  9995
2 46495  97.8849 172.1096 0008017 304.7591  55.2892 15.29809762315487
HAWK-2C                 
1 47502U 21006CT  26169.13031825  .00004937  00000+0  14919-3 0  9993
2 47502  97.2273 213.4215 0006800 182.3917 177.7296 15.34672483299645
HAWK-2A                 
1 47505U 21006CW  26169.06759917  .00005375  00000+0  16214-3 0  9994
2 47505  97.2313 214.0383 0006218 185.4890 174.6286 15.34687476299635
HAWK-2B                 
1 47508U 21006CZ  26169.06308422  .00006085  00000+0  18270-3 0  9991
2 47508  97.2185 212.3643 0006808 183.8760 176.2432 15.34776989299637
HAWK-3B                 
1 48931U 21059BE  26169.08929922  .00037571  00000+0  31819-3 0  9994
2 48931  97.6654   5.8821 0003180 327.3278  32.7786 15.69620903277990
HAWK-3C                 
1 48948U 21059BX  26169.08897473  .00034621  00000+0  29341-3 0  9997
2 48948  97.6772  11.5690 0003490 328.3716  31.7335 15.69618054277992
HAWK-3A                 
1 48957U 21059CG  26169.28008274  .00038183  00000+0  32291-3 0  9997
2 48957  97.6716   8.9829 0003460 329.5051  30.6008 15.69650937278022
HAWK-5C                 
1 52754U 22057Y   26168.94711450  .00015380  00000+0  26251-3 0  9998
2 52754  97.6603 328.6623 0004965  80.9292 279.2521 15.51415979226465
HAWK-5B                 
1 52756U 22057AA  26169.26945818  .00014488  00000+0  24730-3 0  9991
2 52756  97.6614 327.3547 0005625  72.8472 287.3395 15.51425441226514
