OBJECT_NAME,OBJECT_ID,EPOCH,MEAN_MOTION,ECCENTRICITY,INCLINATION,RA_OF_ASC_NODE,ARG_OF_PERICENTER,MEAN_ANOMALY,EPHEMERIS_TYPE,CLASSIFICATION_TYPE,NORAD_CAT_ID,ELEMENT_SET_NO,REV_AT_EPOCH,BSTAR,MEAN_MOTION_DOT,MEAN_MOTION_DDOT
PROBA-1,2001-049B,2026-06-18T07:57:17.406144,15.07498041,.00564874,97.9594,177.9042,118.0878,242.6075,0,U,26958,999,34379,.98353145E-4,.1476E-4,0
CUTE-1 (CO-55),2003-031E,2026-06-18T00:29:44.023488,14.24336174,.00096097,98.6736,177.5689,175.5784,184.5482,0,U,27844,999,19179,.11471233E-3,.221E-5,0
CUBESAT XI-IV (CO-57),2003-031J,2026-06-17T22:32:30.413760,14.23621196,.0009073,98.6765,177.2007,194.7196,165.3719,0,U,27848,999,19148,.10079477E-3,.186E-5,0
APRIZESAT 4,2009-041D,2026-06-18T04:49:33.905568,14.83880470,.00423448,98.1412,244.5418,319.6992,40.1085,0,U,35684,999,91151,.67644334E-4,.511E-5,0
APRIZESAT 3,2009-041F,2026-06-18T04:03:19.153152,14.96244632,.00628021,98.2064,322.4396,64.5906,296.1796,0,U,35686,999,91652,.13954242E-3,.157E-4,0
PROBA-2,2009-059B,2026-06-18T01:34:43.386816,14.54862763,.00119481,98.2450,352.4063,279.1293,80.8552,0,U,36037,999,88165,.40499828E-4,.129E-5,0
APRIZESAT 5,2011-044E,2026-06-18T06:58:50.137248,14.81078219,.00522419,98.2452,102.3625,0.8063,359.3224,0,U,37792,999,79895,.1190706E-3,.886E-5,0
APRIZESAT 6,2011-044F,2026-06-18T05:56:37.192416,14.76917308,.0044505,98.2363,79.7689,82.7527,68.0651,0,U,37793,999,79730,.94502061E-4,.619E-5,0
PROBA-V,2013-021A,2026-06-17T21:24:53.684064,14.23597058,.00051664,98.3584,147.4641,121.7820,238.3863,0,U,39159,999,68121,.3636394E-4,.42E-6,0
APRIZESAT 7,2013-066A,2026-06-18T07:03:57.002400,14.91566171,.00350846,97.7709,122.4984,205.5298,154.4189,0,U,39416,999,68139,.9986214E-4,.955E-5,0
APRIZESAT 8,2013-066K,2026-06-18T06:50:14.413056,14.87654398,.00444006,97.8221,116.7374,282.8266,76.7992,0,U,39425,999,67983,.86789853E-4,.746E-5,0
BUGSAT-1 (TITA),2014-033E,2026-06-18T06:58:32.844288,15.15595257,.00280591,98.0431,261.9040,174.4860,185.6685,0,U,40014,999,65600,.24031531E-3,.4531E-4,0
SAUDISAT 4,2014-033G,2026-06-17T22:19:47.625312,14.79545642,.00461387,97.7584,315.0393,71.6468,288.9754,0,U,40016,999,64618,.75486672E-4,.523E-5,0
APRIZESAT 9,2014-033J,2026-06-18T07:02:46.510368,14.74215850,.00657687,97.9063,302.4651,195.5874,164.3311,0,U,40018,999,64372,.89772528E-4,.561E-5,0
APRIZESAT 10,2014-033K,2026-06-18T06:47:41.261280,14.70883242,.0077388,97.9652,296.2180,270.2843,88.9497,0,U,40019,999,64241,.61969706E-4,.343E-5,0
TECHDEMOSAT-1 (TDS-1),2014-037H,2026-06-17T22:50:50.556192,15.13302501,.00045238,98.3814,161.2404,262.2144,97.8571,0,U,40076,999,64834,.35071064E-3,.6168E-4,0
TECHNOSAT,2017-042E,2026-06-18T05:55:06.093120,15.04967634,.00190313,97.4292,326.8635,90.8830,269.4577,0,U,42829,999,48686,.21222196E-3,.2961E-4,0
FLYING LAPTOP,2017-042G,2026-06-18T06:02:56.829696,15.01150483,.00195959,97.4691,324.7430,118.1419,242.1788,0,U,42831,999,48661,.19836078E-3,.2494E-4,0
HAWK-A,2018-099H,2026-06-18T03:15:22.994784,15.24651470,.00331096,97.3909,221.3594,282.3789,77.3743,0,U,43765,999,41324,.19072666E-3,.4708E-4,0
HAWK-B,2018-099AN,2026-06-18T02:13:24.298176,15.22833749,.00304194,97.3957,220.7302,301.5982,58.2287,0,U,43794,999,41317,.20864898E-3,.4871E-4,0
HAWK-C,2018-099AT,2026-06-18T02:38:30.898176,15.28112824,.00387187,97.3886,222.2509,282.3747,77.3160,0,U,43799,999,41405,.201673E-3,.5572E-4,0
SALSAT,2020-068K,2026-06-17T23:54:00.626976,15.29809762,.00080177,97.8849,172.1096,304.7591,55.2892,0,U,46495,999,31548,.22101641E-3,.6301E-4,0
HAWK-2C,2021-006CT,2026-06-18T03:07:39.496800,15.34672483,.00068005,97.2273,213.4215,182.3917,177.7296,0,U,47502,999,29964,.14918608E-3,.4937E-4,0
HAWK-2A,2021-006CW,2026-06-18T01:37:20.568288,15.34687476,.00062187,97.2313,214.0383,185.4890,174.6286,0,U,47505,999,29963,.16213978E-3,.5375E-4,0
HAWK-2B,2021-006CZ,2026-06-18T01:30:50.476608,15.34776989,.00068081,97.2185,212.3643,183.8760,176.2432,0,U,47508,999,29963,.18269904E-3,.6085E-4,0
HAWK-3B,2021-059BE,2026-06-18T02:08:35.452608,15.69620903,.000318,97.6654,5.8821,327.3278,32.7786,0,U,48931,999,27799,.31818509E-3,.37571E-3,0
HAWK-3C,2021-059BX,2026-06-18T02:08:07.416672,15.69618054,.00034902,97.6772,11.5690,328.3716,31.7335,0,U,48948,999,27799,.29340619E-3,.34621E-3,0
HAWK-3A,2021-059CG,2026-06-18T06:43:19.148736,15.69650937,.00034604,97.6716,8.9829,329.5051,30.6008,0,U,48957,999,27802,.32290732E-3,.38183E-3,0
HAWK-5C,2022-057Y,2026-06-17T22:43:50.692800,15.51415979,.00049652,97.6603,328.6623,80.9292,279.2521,0,U,52754,999,22646,.26250986E-3,.1538E-3,0
HAWK-5B,2022-057AA,2026-06-18T06:28:01.186752,15.51425441,.00056253,97.6614,327.3547,72.8472,287.3395,0,U,52756,999,22651,.24730351E-3,.14488E-3,0
